$$SOE
2460154.500000000, A.D. 2023-Jul-29 00:00:00.0000, 4.180481333824010E+08, 2.586568902112135E+08, 7.506428660254382E+07,
2460161.500000000, A.D. 2023-Aug-05 00:00:00.0000, 4.133297276782388E+08, 2.675001064535638E+08, 7.488392717341848E+07,
2460168.500000000, A.D. 2023-Aug-12 00:00:00.0000, 4.084493201308472E+08, 2.762384637218819E+08, 7.467391411524385E+07,
2460175.500000000, A.D. 2023-Aug-19 00:00:00.0000, 4.034095169683488E+08, 2.848689865170881E+08, 7.443445516031808E+07,
2460182.500000000, A.D. 2023-Aug-26 00:00:00.0000, 3.982129709106305E+08, 2.933887706922653E+08, 7.416576926473990E+07,
2460189.500000000, A.D. 2023-Sep-02 00:00:00.0000, 3.928623789365899E+08, 3.017949838819401E+08, 7.386808631270258E+07,
2460196.500000000, A.D. 2023-Sep-09 00:00:00.0000, 3.873604800898097E+08, 3.100848657485552E+08, 7.354164680688217E+07,
2460203.500000000, A.D. 2023-Sep-16 00:00:00.0000, 3.817100534939762E+08, 3.182557279903228E+08, 7.318670152545388E+07,
2460210.500000000, A.D. 2023-Sep-23 00:00:00.0000, 3.759139169974882E+08, 3.263049543990698E+08, 7.280351113163693E+07,
2460217.500000000, A.D. 2023-Sep-30 00:00:00.0000, 3.699749261099237E+08, 3.342300021594379E+08, 7.239234586444832E+07,
2460224.500000000, A.D. 2023-Oct-07 00:00:00.0000, 3.638959708767108E+08, 3.420284038472809E+08, 7.195348548218973E+07,
2460231.500000000, A.D. 2023-Oct-14 00:00:00.0000, 3.576799717327240E+08, 3.496977668170844E+08, 7.148721909328419E+07,
2460238.500000000, A.D. 2023-Oct-21 00:00:00.0000, 3.513298775657212E+08, 3.572357715836073E+08, 7.099384471008776E+07,
2460245.500000000, A.D. 2023-Oct-28 00:00:00.0000, 3.448486645659199E+08, 3.646401714594707E+08, 7.047366884145448E+07,
2460252.500000000, A.D. 2023-Nov-04 00:00:00.0000, 3.382393346121779E+08, 3.719087926809866E+08, 6.992700617658728E+07,
2460259.500000000, A.D. 2023-Nov-11 00:00:00.0000, 3.315049133737497E+08, 3.790395344253545E+08, 6.935417929593579E+07,
2460266.500000000, A.D. 2023-Nov-18 00:00:00.0000, 3.246484483486908E+08, 3.860303686574930E+08, 6.875551838467579E+07,
2460273.500000000, A.D. 2023-Nov-25 00:00:00.0000, 3.176730069129059E+08, 3.928793398312714E+08, 6.813136094463027E+07,
2460280.500000000, A.D. 2023-Dec-02 00:00:00.0000, 3.105816744086937E+08, 3.995845644361129E+08, 6.748205150167045E+07,
2460287.500000000, A.D. 2023-Dec-09 00:00:00.0000, 3.033775523509924E+08, 4.061442303324354E+08, 6.680794129712877E+07,
2460294.500000000, A.D. 2023-Dec-16 00:00:00.0000, 2.960637570393041E+08, 4.125565958912163E+08, 6.610938793837184E+07,
2460301.500000000, A.D. 2023-Dec-23 00:00:00.0000, 2.886434189246184E+08, 4.188199896278181E+08, 6.538675503317067E+07,
2460308.500000000, A.D. 2023-Dec-30 00:00:00.0000, 2.811196813916747E+08, 4.249328113808008E+08, 6.464041201656595E+07,
2460315.500000000, A.D. 2024-Jan-06 00:00:00.0000, 2.734956971829603E+08, 4.308935326764069E+08, 6.387073413979337E+07,
2460322.500000000, A.D. 2024-Jan-13 00:00:00.0000, 2.657746256370884E+08, 4.367006944755749E+08, 6.307810218306455E+07,
2460329.500000000, A.D. 2024-Jan-20 00:00:00.0000, 2.579596319665557E+08, 4.423529053908021E+08, 6.226290203218865E+07,
2460336.500000000, A.D. 2024-Jan-27 00:00:00.0000, 2.500538865460679E+08, 4.478488410261803E+08, 6.142552435809359E+07,
2460343.500000000, A.D. 2024-Feb-03 00:00:00.0000, 2.420605637823381E+08, 4.531872434936385E+08, 6.056636436083394E+07,
2460350.500000000, A.D. 2024-Feb-10 00:00:00.0000, 2.339828408422120E+08, 4.583669208163190E+08, 5.968582152877951E+07,
2460357.500000000, A.D. 2024-Feb-17 00:00:00.0000, 2.258238963773928E+08, 4.633867462290307E+08, 5.878429940085241E+07,
2460364.500000000, A.D. 2024-Feb-24 00:00:00.0000, 2.175869092812260E+08, 4.682456573925132E+08, 5.786220532966694E+07,
2460371.500000000, A.D. 2024-Mar-02 00:00:00.0000, 2.092750575063370E+08, 4.729426554908778E+08, 5.691995024018824E+07,
2460378.500000000, A.D. 2024-Mar-09 00:00:00.0000, 2.008915170812928E+08, 4.774768041512923E+08, 5.595794836602640E+07,
2460385.500000000, A.D. 2024-Mar-16 00:00:00.0000, 1.924394617210270E+08, 4.818472283853102E+08, 5.497661694327700E+07,
2460392.500000000, A.D. 2024-Mar-23 00:00:00.0000, 1.839220629273432E+08, 4.860531146629819E+08, 5.397637596204725E+07,
2460399.500000000, A.D. 2024-Mar-30 00:00:00.0000, 1.753424883380367E+08, 4.900937120936038E+08, 5.295764817879447E+07,
2460406.500000000, A.D. 2024-Apr-06 00:00:00.0000, 1.667038985786716E+08, 4.939683313460859E+08, 5.192085909065807E+07,
2460413.500000000, A.D. 2024-Apr-13 00:00:00.0000, 1.580094461670573E+08, 4.976763421485448E+08, 5.086643661473337E+07,
2460420.500000000, A.D. 2024-Apr-20 00:00:00.0000, 1.492622755186031E+08, 5.012171720459685E+08, 4.979481077838352E+07,
2460427.500000000, A.D. 2024-Apr-27 00:00:00.0000, 1.404655225348873E+08, 5.045903058553520E+08, 4.870641351369768E+07,
2460434.500000000, A.D. 2024-May-04 00:00:00.0000, 1.316223138622766E+08, 5.077952851161835E+08, 4.760167849053791E+07,
2460441.500000000, A.D. 2024-May-11 00:00:00.0000, 1.227357660580691E+08, 5.108317074361652E+08, 4.648104095805997E+07,
2460448.500000000, A.D. 2024-May-18 00:00:00.0000, 1.138089847454734E+08, 5.136992257555145E+08, 4.534493758903953E+07,
2460455.500000000, A.D. 2024-May-25 00:00:00.0000, 1.048450637815983E+08, 5.163975475242611E+08, 4.419380632422456E+07,
2460462.500000000, A.D. 2024-Jun-01 00:00:00.0000, 9.584708449779466E+07, 5.189264337362830E+08, 4.302808620657420E+07,
2460469.500000000, A.D. 2024-Jun-08 00:00:00.0000, 8.681811525804421E+07, 5.212856977979019E+08, 4.184821718092713E+07,
2460476.500000000, A.D. 2024-Jun-15 00:00:00.0000, 7.776121173397431E+07, 5.234752047768326E+08, 4.065463986703670E+07,
2460483.500000000, A.D. 2024-Jun-22 00:00:00.0000, 6.867941689042626E+07, 5.254948722073569E+08, 3.944779549425006E+07,
2460490.500000000, A.D. 2024-Jun-29 00:00:00.0000, 5.957575855874024E+07, 5.273446706304872E+08, 3.822812604362708E+07,
2460497.500000000, A.D. 2024-Jul-06 00:00:00.0000, 5.045324724003721E+07, 5.290246213983929E+08, 3.699607415323466E+07,
2460504.500000000, A.D. 2024-Jul-13 00:00:00.0000, 4.131487608620016E+07, 5.305347945704951E+08, 3.575208283905587E+07,
2460511.500000000, A.D. 2024-Jul-20 00:00:00.0000, 3.216362107308791E+07, 5.318753080521576E+08, 3.449659530758521E+07,
2460518.500000000, A.D. 2024-Jul-27 00:00:00.0000, 2.300244070980847E+07, 5.330463270171539E+08, 3.323005484170890E+07,
2460525.500000000, A.D. 2024-Aug-03 00:00:00.0000, 1.383427555641742E+07, 5.340480632394723E+08, 3.195290470395398E+07,
2460532.500000000, A.D. 2024-Aug-10 00:00:00.0000, 4.662047715139603E+06, 5.348807743305448E+08, 3.066558804121149E+07,
2460539.500000000, A.D. 2024-Aug-17 00:00:00.0000, -4.511339658335593E+06, 5.355447629041492E+08, 2.936854778799072E+07,
2460546.500000000, A.D. 2024-Aug-24 00:00:00.0000, -1.368300279652041E+07, 5.360403756472641E+08, 2.806222656342733E+07,
2460553.500000000, A.D. 2024-Aug-31 00:00:00.0000, -2.285007760008655E+07, 5.363680022359366E+08, 2.674706654601622E+07,
2460560.500000000, A.D. 2024-Sep-07 00:00:00.0000, -3.200971939167381E+07, 5.365280742231634E+08, 2.542350930249390E+07,
2460567.500000000, A.D. 2024-Sep-14 00:00:00.0000, -4.115910205933283E+07, 5.365210648957104E+08, 2.409199564408836E+07,
2460574.500000000, A.D. 2024-Sep-21 00:00:00.0000, -5.029541861878573E+07, 5.363474905134466E+08, 2.275296572954702E+07,
2460581.500000000, A.D. 2024-Sep-28 00:00:00.0000, -5.941588368222935E+07, 5.360079097027155E+08, 2.140685919551337E+07,
2460588.500000000, A.D. 2024-Oct-05 00:00:00.0000, -6.851773416580048E+07, 5.355029210049337E+08, 2.005411497764578E+07,
2460595.500000000, A.D. 2024-Oct-12 00:00:00.0000, -7.759822859760848E+07, 5.348331615622438E+08, 1.869517109894660E+07,
2460602.500000000, A.D. 2024-Oct-19 00:00:00.0000, -8.665464677744037E+07, 5.339993066701829E+08, 1.733046456354281E+07,
2460609.500000000, A.D. 2024-Oct-26 00:00:00.0000, -9.568428982102509E+07, 5.330020693958946E+08, 1.596043129324004E+07,
2460616.500000000, A.D. 2024-Nov-02 00:00:00.0000, -1.046844803322614E+08, 5.318422001136503E+08, 1.458550607103208E+07,
2460623.500000000, A.D. 2024-Nov-09 00:00:00.0000, -1.136525626075022E+08, 5.305204859787617E+08, 1.320612248433003E+07,
2460630.500000000, A.D. 2024-Nov-16 00:00:00.0000, -1.225859028466086E+08, 5.290377503405724E+08, 1.182271286550796E+07,
2460637.500000000, A.D. 2024-Nov-23 00:00:00.0000, -1.314818893244278E+08, 5.273948520450168E+08, 1.043570822135076E+07,
2460644.500000000, A.D. 2024-Nov-30 00:00:00.0000, -1.403379323150149E+08, 5.255926845844168E+08, 9.045538128802449E+06,
2460651.500000000, A.D. 2024-Dec-07 00:00:00.0000, -1.491514633499103E+08, 5.236321755155100E+08, 7.652630592930704E+06,
2460658.500000000, A.D. 2024-Dec-14 00:00:00.0000, -1.579199344998732E+08, 5.215142873705257E+08, 6.257412030286849E+06,
2460665.500000000, A.D. 2024-Dec-21 00:00:00.0000, -1.666408199985929E+08, 5.192400188212332E+08, 4.860307488886952E+06,
2460672.500000000, A.D. 2024-Dec-28 00:00:00.0000, -1.753116182356739E+08, 5.168104031274242E+08, 3.461740681503326E+06,
2460679.500000000, A.D. 2025-Jan-04 00:00:00.0000, -1.839298515230344E+08, 5.142265062453462E+08, 2.062133788439512E+06,
2460686.500000000, A.D. 2025-Jan-11 00:00:00.0000, -1.924930654569265E+08, 5.114894262570038E+08, 6.619073325378001E+05,
2460693.500000000, A.D. 2025-Jan-18 00:00:00.0000, -2.009988287924764E+08, 5.086002932017486E+08, -7.385198644868135E+05,
2460700.500000000, A.D. 2025-Jan-25 00:00:00.0000, -2.094447335873826E+08, 5.055602688351441E+08, -2.138730705347657E+06,
2460707.500000000, A.D. 2025-Feb-01 00:00:00.0000, -2.178283954255575E+08, 5.023705462845491E+08, -3.538309839796454E+06,
2460714.500000000, A.D. 2025-Feb-08 00:00:00.0000, -2.261474536625330E+08, 4.990323496206319E+08, -4.936843690127403E+06,
2460721.500000000, A.D. 2025-Feb-15 00:00:00.0000, -2.343995716640773E+08, 4.955469333241516E+08, -6.333920483684391E+06,
$$EOE